{
  "type": "FeatureCollection",
  "features": [
    {
      "type": "Feature",
      "properties": {
        "norad_id": 37562,
        "name": "IRIDIUM 33 DEB",
        "group": "iridium-33-debris",
        "lat": -55.494430840864084,
        "lon": -131.50379266461562,
        "alt_km": 723.9977534568261,
        "timestamp": "2025-12-13T15:35:12.490098+00:00",
        "meta_object_name": "IRIDIUM 33 DEB",
        "meta_object_id": "1997-051XX",
        "meta_epoch": "2025-12-12T22:34:29.180064",
        "meta_mean_motion": 14.56479735,
        "meta_eccentricity": 0.00267072,
        "meta_inclination": 86.3742,
        "meta_ra_of_asc_node": 43.5127,
        "meta_arg_of_pericenter": 107.2211,
        "meta_mean_anomaly": 13.868,
        "meta_ephemeris_type": 0,
        "meta_classification_type": "U",
        "meta_norad_cat_id": 37562,
        "meta_element_set_no": 999,
        "meta_rev_at_epoch": 86331,
        "meta_bstar": 0.0015437368,
        "meta_mean_motion_dot": 6.916e-05,
        "meta_mean_motion_ddot": 0,
        "tle_line1": "1 37562U 97051XX  25346.94061551  .00006916  00000+0  15437-2 0  9999",
        "tle_line2": "2 37562  86.3742  43.5127 0026707 107.2211  13.8680 14.56479735863311"
      },
      "geometry": {
        "type": "Point",
        "coordinates": [
          -131.50379266461562,
          -55.494430840864084
        ]
      }
    },
    {
      "type": "Feature",
      "properties": {
        "norad_id": 37565,
        "name": "IRIDIUM 33 DEB",
        "group": "iridium-33-debris",
        "lat": -0.4525731311349392,
        "lon": 9.153033228540222,
        "alt_km": 722.1540542171424,
        "timestamp": "2025-12-13T15:35:12.490108+00:00",
        "meta_object_name": "IRIDIUM 33 DEB",
        "meta_object_id": "1997-051YA",
        "meta_epoch": "2025-12-12T08:09:12.075840",
        "meta_mean_motion": 14.51514759,
        "meta_eccentricity": 0.00152083,
        "meta_inclination": 86.3497,
        "meta_ra_of_asc_node": 9.7522,
        "meta_arg_of_pericenter": 85.3197,
        "meta_mean_anomaly": 274.9745,
        "meta_ephemeris_type": 0,
        "meta_classification_type": "U",
        "meta_norad_cat_id": 37565,
        "meta_element_set_no": 999,
        "meta_rev_at_epoch": 65831,
        "meta_bstar": 0.00084222029,
        "meta_mean_motion_dot": 3.391e-05,
        "meta_mean_motion_ddot": 0,
        "tle_line1": "1 37565U 97051YA  25346.33972310  .00003391  00000+0  84222-3 0  9992",
        "tle_line2": "2 37565  86.3497   9.7522 0015208  85.3197 274.9745 14.51514759658312"
      },
      "geometry": {
        "type": "Point",
        "coordinates": [
          9.153033228540222,
          -0.4525731311349392
        ]
      }
    },
    {
      "type": "Feature",
      "properties": {
        "norad_id": 38017,
        "name": "IRIDIUM 33 DEB",
        "group": "iridium-33-debris",
        "lat": 78.73369279053955,
        "lon": -175.43838018821015,
        "alt_km": 660.2170164354275,
        "timestamp": "2025-12-13T15:35:12.490118+00:00",
        "meta_object_name": "IRIDIUM 33 DEB",
        "meta_object_id": "1997-051YD",
        "meta_epoch": "2025-12-09T11:46:33.949344",
        "meta_mean_motion": 14.48798991,
        "meta_eccentricity": 0.0092342,
        "meta_inclination": 86.3421,
        "meta_ra_of_asc_node": 167.6378,
        "meta_arg_of_pericenter": 113.8595,
        "meta_mean_anomaly": 247.2321,
        "meta_ephemeris_type": 0,
        "meta_classification_type": "U",
        "meta_norad_cat_id": 38017,
        "meta_element_set_no": 999,
        "meta_rev_at_epoch": 61355,
        "meta_bstar": 0.0067532519,
        "meta_mean_motion_dot": 0.00027013,
        "meta_mean_motion_ddot": 0,
        "tle_line1": "1 38017U 97051YD  25343.49067071  .00027013  00000+0  67533-2 0  9990",
        "tle_line2": "2 38017  86.3421 167.6378 0092342 113.8595 247.2321 14.48798991613556"
      },
      "geometry": {
        "type": "Point",
        "coordinates": [
          -175.43838018821015,
          78.73369279053955
        ]
      }
    },
    {
      "type": "Feature",
      "properties": {
        "norad_id": 38022,
        "name": "IRIDIUM 33 DEB",
        "group": "iridium-33-debris",
        "lat": -16.762062843627294,
        "lon": -162.82914510273926,
        "alt_km": 787.8239122311461,
        "timestamp": "2025-12-13T15:35:12.490128+00:00",
        "meta_object_name": "IRIDIUM 33 DEB",
        "meta_object_id": "1997-051YJ",
        "meta_epoch": "2025-12-12T08:41:14.041248",
        "meta_mean_motion": 14.41246239,
        "meta_eccentricity": 0.00465932,
        "meta_inclination": 86.2691,
        "meta_ra_of_asc_node": 16.6083,
        "meta_arg_of_pericenter": 51.6762,
        "meta_mean_anomaly": 308.8611,
        "meta_ephemeris_type": 0,
        "meta_classification_type": "U",
        "meta_norad_cat_id": 38022,
        "meta_element_set_no": 999,
        "meta_rev_at_epoch": 69188,
        "meta_bstar": 0.001535131,
        "meta_mean_motion_dot": 5.042e-05,
        "meta_mean_motion_ddot": 0,
        "tle_line1": "1 38022U 97051YJ  25346.36196807  .00005042  00000+0  15351-2 0  9994",
        "tle_line2": "2 38022  86.2691  16.6083 0046593  51.6762 308.8611 14.41246239691882"
      },
      "geometry": {
        "type": "Point",
        "coordinates": [
          -162.82914510273926,
          -16.762062843627294
        ]
      }
    },
    {
      "type": "Feature",
      "properties": {
        "norad_id": 38028,
        "name": "IRIDIUM 33 DEB",
        "group": "iridium-33-debris",
        "lat": -4.223670502505865,
        "lon": -0.39759935332651725,
        "alt_km": 752.9009722510682,
        "timestamp": "2025-12-13T15:35:12.490138+00:00",
        "meta_object_name": "IRIDIUM 33 DEB",
        "meta_object_id": "1997-051YQ",
        "meta_epoch": "2025-12-09T08:38:54.868992",
        "meta_mean_motion": 14.46171938,
        "meta_eccentricity": 0.00301795,
        "meta_inclination": 86.3256,
        "meta_ra_of_asc_node": 1.7381,
        "meta_arg_of_pericenter": 131.6061,
        "meta_mean_anomaly": 228.7734,
        "meta_ephemeris_type": 0,
        "meta_classification_type": "U",
        "meta_norad_cat_id": 38028,
        "meta_element_set_no": 999,
        "meta_rev_at_epoch": 65446,
        "meta_bstar": 0.0004464513,
        "meta_mean_motion_dot": 1.624e-05,
        "meta_mean_motion_ddot": 0,
        "tle_line1": "1 38028U 97051YQ  25343.36035728  .00001624  00000+0  44645-3 0  9992",
        "tle_line2": "2 38028  86.3256   1.7381 0030179 131.6061 228.7734 14.46171938654463"
      },
      "geometry": {
        "type": "Point",
        "coordinates": [
          -0.39759935332651725,
          -4.223670502505865
        ]
      }
    },
    {
      "type": "Feature",
      "properties": {
        "norad_id": 38228,
        "name": "IRIDIUM 33 DEB",
        "group": "iridium-33-debris",
        "lat": -48.76584186013028,
        "lon": -127.67716389992958,
        "alt_km": 773.5639901086797,
        "timestamp": "2025-12-13T15:35:12.490148+00:00",
        "meta_object_name": "IRIDIUM 33 DEB",
        "meta_object_id": "1997-051ZC",
        "meta_epoch": "2025-12-12T22:17:01.277664",
        "meta_mean_motion": 14.2726748,
        "meta_eccentricity": 0.00642641,
        "meta_inclination": 86.2947,
        "meta_ra_of_asc_node": 48.3893,
        "meta_arg_of_pericenter": 188.8079,
        "meta_mean_anomaly": 297.4121,
        "meta_ephemeris_type": 0,
        "meta_classification_type": "U",
        "meta_norad_cat_id": 38228,
        "meta_element_set_no": 999,
        "meta_rev_at_epoch": 84784,
        "meta_bstar": 0.00045109336,
        "meta_mean_motion_dot": 1.146e-05,
        "meta_mean_motion_ddot": 0,
        "tle_line1": "1 38228U 97051ZC  25346.92848701  .00001146  00000+0  45109-3 0  9997",
        "tle_line2": "2 38228  86.2947  48.3893 0064264 188.8079 297.4121 14.27267480847847"
      },
      "geometry": {
        "type": "Point",
        "coordinates": [
          -127.67716389992958,
          -48.76584186013028
        ]
      }
    },
    {
      "type": "Feature",
      "properties": {
        "norad_id": 38241,
        "name": "IRIDIUM 33 DEB",
        "group": "iridium-33-debris",
        "lat": -60.07660420655689,
        "lon": 176.61269897295122,
        "alt_km": 720.9626730998798,
        "timestamp": "2025-12-13T15:35:12.490157+00:00",
        "meta_object_name": "IRIDIUM 33 DEB",
        "meta_object_id": "1997-051ZR",
        "meta_epoch": "2025-12-11T08:00:47.481696",
        "meta_mean_motion": 14.54853492,
        "meta_eccentricity": 0.00056662,
        "meta_inclination": 86.3236,
        "meta_ra_of_asc_node": 351.2198,
        "meta_arg_of_pericenter": 76.7484,
        "meta_mean_anomaly": 283.4354,
        "meta_ephemeris_type": 0,
        "meta_classification_type": "U",
        "meta_norad_cat_id": 38241,
        "meta_element_set_no": 999,
        "meta_rev_at_epoch": 60180,
        "meta_bstar": 0.0013259899,
        "meta_mean_motion_dot": 5.712e-05,
        "meta_mean_motion_ddot": 0,
        "tle_line1": "1 38241U 97051ZR  25345.33388289  .00005712  00000+0  13260-2 0  9991",
        "tle_line2": "2 38241  86.3236 351.2198 0005666  76.7484 283.4354 14.54853492601805"
      },
      "geometry": {
        "type": "Point",
        "coordinates": [
          176.61269897295122,
          -60.07660420655689
        ]
      }
    }
  ]
}